[{"OBJECT_NAME":"STARLINK-30286","OBJECT_ID":"2023-122R","EPOCH":"2026-03-09T22:00:01.999584","MEAN_MOTION":15.26734186,"ECCENTRICITY":0.00012555,"INCLINATION":43.0005,"RA_OF_ASC_NODE":91.0287,"ARG_OF_PERICENTER":253.8904,"MEAN_ANOMALY":114.3765,"EPHEMERIS_TYPE":0,"CLASSIFICATION_TYPE":"U","NORAD_CAT_ID":57647,"ELEMENT_SET_NO":999,"REV_AT_EPOCH":578,"BSTAR":0.0015305228,"MEAN_MOTION_DOT":0.00041016,"MEAN_MOTION_DDOT":0},{"OBJECT_NAME":"FLOCK 4G-15","OBJECT_ID":"2025-009BX","EPOCH":"2026-03-09T17:13:37.807680","MEAN_MOTION":15.27266411,"ECCENTRICITY":0.00036988,"INCLINATION":97.4054,"RA_OF_ASC_NODE":151.1927,"ARG_OF_PERICENTER":316.8208,"MEAN_ANOMALY":43.274,"EPHEMERIS_TYPE":0,"CLASSIFICATION_TYPE":"U","NORAD_CAT_ID":62678,"ELEMENT_SET_NO":999,"REV_AT_EPOCH":12135,"BSTAR":0.00047574812,"MEAN_MOTION_DOT":0.00012647,"MEAN_MOTION_DDOT":0}]
